{"type":"FeatureCollection","features":[{"type":"Feature","properties":{"label":"500 m straight-line accessibility zone"},"geometry":{"type":"MultiPolygon","coordinates":[[[[2.383912,48.76929],[2.387043,48.764465],[2.387483,48.763912],[2.387801,48.76345],[2.388679,48.761959],[2.390187,48.75976],[2.39077,48.758097],[2.390815,48.757294],[2.390803,48.756812],[2.39071,48.755947],[2.39036,48.754805],[2.389944,48.754003],[2.38911,48.752909],[2.38786,48.752004],[2.386287,48.751356],[2.384404,48.750801],[2.378683,48.749257],[2.376821,48.748961],[2.374908,48.74902],[2.374499,48.749072],[2.372434,48.749571],[2.370718,48.750479],[2.369529,48.751702],[2.364551,48.759288],[2.363156,48.761367],[2.361815,48.763452],[2.36136,48.764489],[2.361293,48.765569],[2.36137,48.766202],[2.361588,48.767029],[2.36168,48.76725],[2.362532,48.76851],[2.363921,48.769539],[2.365717,48.770241],[2.372319,48.771986],[2.37535,48.772294],[2.375987,48.772263],[2.378791,48.771961],[2.380923,48.771471],[2.382695,48.770547],[2.383912,48.76929]]],[[[2.380784,48.816694],[2.3788,48.816063],[2.377007,48.815664],[2.37564,48.815653],[2.375998,48.815202],[2.37621,48.815008],[2.379283,48.81105],[2.379928,48.809781],[2.379979,48.808443],[2.379431,48.807154],[2.378333,48.806029],[2.376783,48.805167],[2.374458,48.804246],[2.372467,48.803708],[2.370321,48.803607],[2.368234,48.803954],[2.365232,48.804829],[2.36415,48.804952],[2.362077,48.805441],[2.360348,48.806342],[2.359146,48.80756],[2.357985,48.809362],[2.357476,48.810891],[2.357558,48.811297],[2.356471,48.811208],[2.354534,48.811362],[2.353792,48.811522],[2.35236,48.81206],[2.351909,48.812252],[2.351371,48.812605],[2.350691,48.812305],[2.349742,48.811982],[2.349035,48.811807],[2.347768,48.811607],[2.3466,48.811545],[2.346362,48.811466],[2.344515,48.811231],[2.342642,48.811339],[2.340884,48.811781],[2.340521,48.811921],[2.338796,48.812218],[2.337618,48.812179],[2.336243,48.812268],[2.335353,48.812414],[2.333809,48.812476],[2.331519,48.81306],[2.331239,48.813173],[2.330482,48.813595],[2.329749,48.813853],[2.329032,48.814341],[2.328791,48.814395],[2.3268,48.815094],[2.326448,48.815344],[2.325925,48.815498],[2.32424,48.815873],[2.323106,48.815996],[2.322226,48.816193],[2.321171,48.816527],[2.320163,48.816623],[2.318002,48.817175],[2.317307,48.817571],[2.316676,48.817524],[2.314523,48.817833],[2.313434,48.818172],[2.31276,48.818451],[2.312141,48.818521],[2.311499,48.818475],[2.309469,48.818743],[2.308274,48.819016],[2.307101,48.819224],[2.306707,48.81931],[2.306394,48.819421],[2.30605,48.819458],[2.304252,48.819859],[2.303743,48.82004],[2.3031,48.820107],[2.302472,48.82022],[2.30156,48.820458],[2.300143,48.820773],[2.298807,48.821223],[2.29816,48.821237],[2.29783,48.821284],[2.296411,48.821573],[2.295701,48.821749],[2.295329,48.821895],[2.294876,48.821943],[2.293155,48.822326],[2.291779,48.822789],[2.29063,48.822931],[2.290008,48.823064],[2.288898,48.823416],[2.287022,48.824138],[2.285426,48.825034],[2.28429,48.826255],[2.284261,48.826335],[2.282696,48.826419],[2.280755,48.826946],[2.280087,48.827221],[2.279793,48.826924],[2.279394,48.826588],[2.27864,48.82609],[2.277678,48.825627],[2.276836,48.825341],[2.275539,48.824442],[2.273676,48.823774],[2.271591,48.823517],[2.268036,48.82345],[2.265459,48.823732],[2.263233,48.824634],[2.263083,48.824725],[2.261536,48.826111],[2.260891,48.827779],[2.26067,48.830319],[2.259269,48.830394],[2.25795,48.830516],[2.257078,48.830678],[2.25637,48.830907],[2.254303,48.830847],[2.252246,48.831224],[2.250467,48.832003],[2.249141,48.833107],[2.246535,48.836117],[2.246315,48.836392],[2.245951,48.836991],[2.245614,48.838159],[2.245752,48.839343],[2.245784,48.83944],[2.246563,48.840721],[2.247029,48.841094],[2.246732,48.841325],[2.246381,48.841655],[2.246152,48.841918],[2.240039,48.843498],[2.23828,48.844157],[2.236892,48.845128],[2.235753,48.846152],[2.222994,48.84893],[2.221855,48.849197],[2.22009,48.849815],[2.218672,48.850745],[2.217724,48.851907],[2.217328,48.8532],[2.217297,48.853597],[2.217273,48.854478],[2.217292,48.854878],[2.217381,48.855663],[2.217483,48.85617],[2.217925,48.857647],[2.218362,48.858778],[2.21876,48.859927],[2.219204,48.860903],[2.220692,48.863713],[2.221513,48.865928],[2.221863,48.866672],[2.222452,48.867583],[2.223716,48.869135],[2.224038,48.869509],[2.226404,48.871988],[2.227754,48.873005],[2.229501,48.873711],[2.23455,48.875091],[2.236318,48.875521],[2.238008,48.876881],[2.239245,48.878138],[2.240233,48.87904],[2.241807,48.880041],[2.243781,48.880662],[2.245952,48.880839],[2.248096,48.880554],[2.251114,48.879803],[2.252039,48.881641],[2.253266,48.883022],[2.255149,48.884032],[2.255344,48.884103],[2.255872,48.884282],[2.257976,48.884714],[2.26018,48.884682],[2.274873,48.882858],[2.274839,48.883397],[2.275414,48.884752],[2.275805,48.88514],[2.275911,48.885418],[2.27702,48.886596],[2.277505,48.886977],[2.278359,48.887462],[2.278937,48.888089],[2.27931,48.888345],[2.279671,48.888659],[2.280575,48.889343],[2.281008,48.889621],[2.281965,48.89009],[2.28265,48.890331],[2.28371,48.891055],[2.283987,48.89119],[2.284351,48.891311],[2.284915,48.891673],[2.285623,48.89202],[2.28745,48.892634],[2.287744,48.892676],[2.28802,48.892761],[2.288431,48.892774],[2.288893,48.89284],[2.289632,48.893094],[2.290308,48.893169],[2.291016,48.893385],[2.292037,48.893463],[2.292346,48.89391],[2.293787,48.894947],[2.294302,48.895162],[2.294706,48.89542],[2.29658,48.896143],[2.296897,48.896188],[2.297336,48.89641],[2.298062,48.896564],[2.298927,48.896961],[2.300138,48.897403],[2.302051,48.898556],[2.303508,48.89926],[2.305427,48.899849],[2.306014,48.899897],[2.306279,48.90045],[2.307584,48.901625],[2.308362,48.902129],[2.31008,48.902938],[2.312092,48.903363],[2.313529,48.903362],[2.314146,48.903531],[2.315139,48.903577],[2.317533,48.904352],[2.318529,48.904842],[2.320993,48.905282],[2.321774,48.905312],[2.322596,48.905246],[2.323001,48.905327],[2.323625,48.905299],[2.326834,48.905398],[2.327116,48.905375],[2.327932,48.905398],[2.330079,48.905213],[2.330445,48.905097],[2.331543,48.905361],[2.33236,48.905472],[2.333093,48.905516],[2.33909,48.905642],[2.338999,48.905783],[2.338788,48.906967],[2.337989,48.907859],[2.337693,48.909],[2.337542,48.909229],[2.33738,48.910745],[2.337399,48.910868],[2.337815,48.912027],[2.338677,48.913072],[2.339926,48.913932],[2.340113,48.914031],[2.342218,48.914786],[2.345001,48.915325],[2.346816,48.915597],[2.34877,48.915699],[2.350297,48.915486],[2.351296,48.915435],[2.3532,48.915151],[2.354904,48.914524],[2.35627,48.913604],[2.356626,48.913283],[2.357736,48.91172],[2.358024,48.910852],[2.358425,48.908751],[2.3584,48.907538],[2.358196,48.907078],[2.360109,48.907567],[2.3623,48.907636],[2.364562,48.907465],[2.366634,48.907083],[2.368422,48.906295],[2.369221,48.905623],[2.36953,48.905786],[2.371525,48.906285],[2.373656,48.906353],[2.375715,48.905983],[2.376644,48.905582],[2.378308,48.905791],[2.380406,48.905619],[2.381852,48.905348],[2.382328,48.905202],[2.383681,48.905161],[2.384805,48.904991],[2.385662,48.905204],[2.386925,48.905333],[2.386919,48.905362],[2.387063,48.905375],[2.387069,48.905348],[2.387568,48.905399],[2.387723,48.9054],[2.387724,48.905378],[2.388267,48.905412],[2.390136,48.90518],[2.39085,48.904993],[2.391387,48.905016],[2.391106,48.906083],[2.391431,48.907507],[2.392423,48.90879],[2.393478,48.909691],[2.394842,48.910671],[2.39535,48.911113],[2.396085,48.911586],[2.396979,48.912232],[2.39871,48.913134],[2.400788,48.913625],[2.402995,48.913653],[2.404588,48.913321],[2.405984,48.913213],[2.406311,48.913428],[2.408335,48.914076],[2.409988,48.914209],[2.410408,48.914453],[2.412632,48.915023],[2.415019,48.915054],[2.417275,48.914541],[2.422807,48.91251],[2.423628,48.912155],[2.427499,48.910206],[2.428956,48.909203],[2.429879,48.907954],[2.43018,48.906579],[2.429829,48.90521],[2.428862,48.903976],[2.427369,48.902995],[2.423106,48.900953],[2.415855,48.897323],[2.414686,48.896837],[2.412433,48.896238],[2.410004,48.896198],[2.407708,48.896722],[2.404791,48.897815],[2.401835,48.899093],[2.402604,48.898248],[2.402679,48.898121],[2.402876,48.897558],[2.402964,48.897482],[2.403673,48.89612],[2.403905,48.895547],[2.404073,48.894907],[2.40438,48.89431],[2.404549,48.893666],[2.40494,48.893431],[2.405987,48.89222],[2.406422,48.890856],[2.406202,48.889469],[2.405848,48.88894],[2.40601,48.888168],[2.405818,48.886648],[2.405467,48.886073],[2.406648,48.885698],[2.407389,48.88537],[2.40796,48.885253],[2.409982,48.88458],[2.410339,48.884337],[2.411972,48.883616],[2.412043,48.883559],[2.412423,48.883411],[2.413196,48.883216],[2.414856,48.882332],[2.41602,48.881153],[2.41618,48.880794],[2.416613,48.880361],[2.416694,48.880188],[2.416844,48.880023],[2.417375,48.878666],[2.41728,48.877634],[2.417398,48.877437],[2.417521,48.877266],[2.417751,48.877164],[2.417873,48.87706],[2.418134,48.876918],[2.418543,48.876495],[2.419062,48.876057],[2.419189,48.875827],[2.419272,48.875741],[2.419363,48.875512],[2.419791,48.874738],[2.419957,48.874175],[2.419999,48.873406],[2.420316,48.872512],[2.42043,48.871422],[2.420524,48.871173],[2.420731,48.869195],[2.420752,48.868058],[2.420707,48.867463],[2.421797,48.866382],[2.422363,48.864891],[2.422134,48.863361],[2.421137,48.861971],[2.421063,48.861651],[2.421446,48.859318],[2.421286,48.857765],[2.421253,48.857677],[2.421295,48.857357],[2.421189,48.85639],[2.421313,48.855081],[2.421283,48.854895],[2.421403,48.854757],[2.421555,48.854484],[2.421913,48.853518],[2.422015,48.852943],[2.422406,48.851514],[2.422472,48.850851],[2.422971,48.84976],[2.423047,48.849395],[2.423092,48.848889],[2.424481,48.848711],[2.426422,48.847974],[2.427214,48.847504],[2.427964,48.846933],[2.428702,48.846206],[2.428928,48.845927],[2.431329,48.845718],[2.431453,48.845742],[2.43179,48.846488],[2.432488,48.847164],[2.432546,48.847444],[2.433087,48.84869],[2.434143,48.849782],[2.435703,48.850661],[2.437551,48.851206],[2.43956,48.851368],[2.440016,48.851359],[2.442075,48.85111],[2.443922,48.850459],[2.444093,48.850343],[2.447102,48.850227],[2.449185,48.849893],[2.451007,48.849147],[2.451215,48.848984],[2.454225,48.848534],[2.457765,48.848109],[2.459018,48.84793],[2.461094,48.847577],[2.46275,48.847234],[2.464662,48.846741],[2.465972,48.846318],[2.467393,48.845759],[2.468738,48.845082],[2.469375,48.844719],[2.470072,48.844264],[2.470659,48.843841],[2.471326,48.843289],[2.472143,48.842514],[2.473188,48.841278],[2.473591,48.840864],[2.474595,48.839978],[2.47525,48.839319],[2.475787,48.838598],[2.476073,48.838124],[2.47655,48.836642],[2.476569,48.835959],[2.476537,48.835441],[2.476373,48.834587],[2.476155,48.833888],[2.47597,48.833458],[2.475665,48.832863],[2.475272,48.832259],[2.47504,48.831965],[2.474511,48.831399],[2.47411,48.831034],[2.473539,48.83058],[2.472362,48.829874],[2.471924,48.829668],[2.472211,48.829415],[2.4729,48.82802],[2.472872,48.826553],[2.472707,48.826037],[2.472334,48.825119],[2.472003,48.824033],[2.471924,48.823899],[2.471744,48.823125],[2.471371,48.822272],[2.469553,48.8191],[2.469548,48.818352],[2.468909,48.817043],[2.467938,48.816078],[2.466672,48.815329],[2.463391,48.813737],[2.462894,48.81344],[2.462575,48.813305],[2.460882,48.812765],[2.458714,48.812509],[2.456072,48.812556],[2.45249,48.812763],[2.451141,48.812962],[2.449011,48.813461],[2.448791,48.813489],[2.447514,48.813527],[2.444196,48.813449],[2.442155,48.813467],[2.441035,48.81354],[2.439214,48.813817],[2.438037,48.813745],[2.435986,48.813811],[2.434058,48.814277],[2.432778,48.814925],[2.431436,48.815161],[2.429665,48.81591],[2.428325,48.816981],[2.427543,48.81827],[2.427537,48.818324],[2.427294,48.818521],[2.427066,48.818645],[2.425507,48.819738],[2.424276,48.819766],[2.42102,48.819631],[2.419447,48.819671],[2.417998,48.819819],[2.416655,48.820076],[2.415472,48.820366],[2.413906,48.820297],[2.412033,48.820333],[2.410526,48.82047],[2.409536,48.820618],[2.408625,48.820797],[2.407877,48.820973],[2.406885,48.82128],[2.405606,48.821789],[2.404501,48.822326],[2.403439,48.822929],[2.40263,48.823457],[2.401707,48.824129],[2.400696,48.824949],[2.400075,48.824972],[2.399184,48.825192],[2.398486,48.824359],[2.397773,48.82394],[2.397356,48.823443],[2.395702,48.822455],[2.393655,48.821873],[2.393332,48.821857],[2.392549,48.821397],[2.391174,48.820887],[2.389674,48.820172],[2.389317,48.820059],[2.387283,48.819578],[2.385111,48.819531],[2.384341,48.819682],[2.384284,48.819435],[2.383541,48.818347],[2.382391,48.817428],[2.380784,48.816694]]],[[[2.303432,48.813955],[2.305314,48.814702],[2.306147,48.814836],[2.306645,48.814973],[2.307163,48.81499],[2.307422,48.815029],[2.307771,48.81501],[2.308968,48.81505],[2.313147,48.814706],[2.313534,48.814642],[2.313795,48.814651],[2.317332,48.814358],[2.319192,48.81402],[2.321103,48.813347],[2.32258,48.81237],[2.323549,48.811121],[2.323898,48.809771],[2.323615,48.808414],[2.322728,48.807177],[2.322404,48.806811],[2.320764,48.805176],[2.313643,48.798164],[2.312302,48.797191],[2.310592,48.796517],[2.30866,48.796198],[2.306671,48.796263],[2.30567,48.796498],[2.304658,48.796415],[2.302419,48.796737],[2.300468,48.797531],[2.299027,48.798708],[2.297076,48.801007],[2.296413,48.802108],[2.296208,48.803285],[2.296647,48.805492],[2.296786,48.805967],[2.297164,48.806968],[2.297685,48.808067],[2.298417,48.809096],[2.302008,48.812852],[2.303432,48.813955]]]]}}]}